#epoch_mjd,a,e,i,om,w,ma,full_name
55200,46.1944787,0.1314850,16.84589,42.24180,134.57912,261.88899,"(2002CX224)"
55200,44.8327660,0.0657524,1.68693,66.44386,263.77899,171.59637,"(2002CZ224)"
52320,45.7135667,0.1195480,4.76161,336.24870,170.79725,0.02524,"(2002CA225)"
55200,43.8747782,0.0780115,3.78353,100.55196,118.37501,315.99704,"(2002CB225)"
55200,46.0253477,0.1491265,7.05697,300.73303,338.80902,221.63144,"(2002CY248)"
52320,56.6340109,0.3821975,5.16608,135.39331,356.06474,0.02087,"(2002CZ248)"
52320,39.5205536,0.1501191,5.54373,358.46961,156.53560,0.03509,"(2002CC251)"
55200,42.4048953,0.0122776,1.43020,48.60538,354.17497,113.58007,"(2002CD251)"
55200,39.2126126,0.2656378,9.31201,342.58558,215.61879,351.09601,"(2002CE251)"
55200,46.8521430,0.1602669,3.10059,312.95132,65.45858,148.42387,"(2002FV6)"
55200,36.2811691,0.1232177,3.54175,153.76450,189.76308,218.70554,"(2002FW6)"
52360,45.1133912,0.0680780,24.02876,3.77898,359.71048,181.09758,"(2002FX6)"
52360,39.4617722,0.1926624,8.62908,1.24622,183.26124,0.01883,"(2002FP7)"
55200,42.7451650,0.0205356,2.35164,57.20481,153.09165,315.45641,"(2002FW36)"
55200,43.9873903,0.0521268,1.13672,301.17783,76.81424,145.36578,"(2002FX36)"
55200,43.8396524,0.0880276,2.18293,59.06274,131.87267,338.60212,"(2002GV31)"
55200,39.1943417,0.2419689,2.64586,227.13403,197.12940,93.03413,"(2002GW31)"
52360,43.3013148,0.0709250,2.19584,66.88163,149.30727,359.96550,"(2002GX31)"
52360,43.4921181,0.0198090,0.51620,23.21010,195.17531,359.96574,"(2002GY31)"
55200,52.3413272,0.3318531,15.12348,244.72586,67.53896,330.68904,"(2002GA32)"
55200,205.9293554,0.8284293,14.20739,177.08255,37.17317,359.47566,"(2002GB32)"
52360,43.4733824,0.0495004,2.74012,67.24313,137.40113,359.96244,"(2002GC32)"
55200,44.4470523,0.1375939,6.59889,22.21000,23.99336,167.50628,"(2002GD32)"
55200,39.3004641,0.2321799,15.72082,203.75858,104.93444,289.65767,"(2002GE32)"
55200,39.2744637,0.1738368,2.78815,44.33250,52.92629,117.76876,"(2002GF32)"
55200,41.9770761,0.0868349,26.70055,220.65393,249.23354,104.89341,"(2002GH32)"
52360,43.7978886,0.0164451,2.59707,111.35757,110.04724,359.95905,"(2002GK32)"
55200,39.4287757,0.1247297,7.08872,11.13894,192.91375,8.16298,"(2002GL32)"
52360,39.4174893,0.3433563,28.59267,214.45463,348.23785,359.96004,"(2002GM32)"
52400,39.3616571,0.1859633,10.12793,30.80655,183.28929,0.11968,"(2002GN32)"
52360,39.2867654,0.0851126,12.63983,216.95954,5.26558,359.95977,"(2002GO32)"
55200,55.5560297,0.4235491,1.55836,124.04593,110.93663,2.90051,"(2002GP32)"
52360,39.4391452,0.1787790,5.81314,26.78983,177.03714,359.95635,"(2002GQ32)"
52360,39.3329532,0.2631718,3.40381,206.95042,0.88153,0.16855,"(2002GR32)"
55200,42.2497192,0.1089582,4.29806,260.49806,320.74494,14.49821,"(2002GS32)"
52360,39.3781159,0.1839140,2.25540,108.07377,111.54663,359.95172,"(2002GT32)"
52400,39.5378959,0.0827178,21.86177,56.85182,166.34882,0.11062,"(2002GU32)"
55200,39.5617300,0.1933343,5.37901,79.13156,173.88573,353.22043,"(2002GV32)"
55200,35.0354651,0.0745031,6.34880,276.80241,120.19286,201.25551,"(2002GW32)"
55200,39.4555769,0.0886604,1.80144,225.57840,338.34333,19.84836,"(2002GY32)"
52360,43.0194335,0.0000000,1.03920,344.20533,170.51724,0.00000,"(2002GA33)"
52360,45.5454250,0.0000000,3.72310,147.72478,6.99358,0.00000,"(2002GB33)"
52380,39.4081798,0.2651432,5.18462,45.95468,143.35146,0.02840,"(2002GG166)"
52380,39.3155531,0.1693906,8.57034,10.76447,180.95567,0.02854,"(2002GH166)"
52380,39.2705966,0.2067825,4.91100,150.84326,39.88299,0.02854,"(2002GJ166)"
52420,53.3976123,0.3823300,13.11629,243.24707,334.15242,0.04788,"(2002JR146)"
55200,46.71429044027852,.2005553736600525,9.764736168999073,59.85471528497145,123.5000741032986,41.44517507399969,"(2002KW14)"
55200,41.88810443039197,.1426441917669196,17.70206969291467,216.1292627303495,213.201503552071,210.8534280739143,"(2002MS4)"
55200,44.0591667,0.0422740,3.07095,165.84542,309.55765,203.83251,"(2002PQ145)"
52480,44.4428607,0.0000000,1.52855,16.18534,292.22208,0.00000,"(2002PN147)"
52480,43.0463986,0.0000000,6.07608,27.10796,282.81267,0.00000,"(2002PE149)"
52480,42.8924923,0.0000000,4.44200,101.10388,218.19644,0.00000,"(2002PF149)"
52480,42.9080169,0.0566114,8.88111,108.53112,212.59743,359.94043,"(2002PH149)"
52480,45.3613454,0.0762016,9.66123,316.40208,193.43564,180.64960,"(2002PJ149)"
52480,37.1126678,0.0000000,4.79065,306.88432,23.38304,0.00000,"(2002PK149)"
52500,42.2541333,0.0000000,0.79413,171.53669,158.08486,0.07177,"(2002PN149)"
55200,44.2896605,0.0592091,0.67151,71.49583,130.63378,139.57627,"(2002PO149)"
55200,41.1536823,0.0926880,34.64298,159.63018,127.84485,52.90493,"(2002PP149)"
52540,44.3385438,0.1738929,28.77300,159.21511,179.31057,0.20030,"(2002PQ149)"
52500,43.5040414,0.1337256,5.54227,75.85520,270.62294,0.00965,"(2002PG150)"
52500,43.1631991,0.0000000,2.41144,298.61861,10.44940,0.00000,"(2002PR152)"
52500,43.4012840,0.1193846,0.89056,175.11693,314.41685,179.51414,"(2002PS152)"
52500,45.6592310,0.0000000,5.59191,135.94616,173.25700,0.00000,"(2002PT152)"
52500,44.5344162,0.0438691,1.23109,158.80454,150.42618,0.00414,"(2002PU152)"
52500,44.1861238,0.0609668,0.77417,141.86499,167.39518,0.00416,"(2002PV152)"
52500,45.4025691,0.0000000,7.40549,131.14527,178.31096,0.00000,"(2002PW152)"
52500,44.4733652,0.0383869,1.01061,141.37091,167.69310,0.00404,"(2002PX152)"
52500,43.6143084,0.0063652,5.20681,131.08923,178.60052,0.00419,"(2002PY152)"
52500,43.7797680,0.1224058,33.28839,129.83863,179.89182,0.00407,"(2002PZ152)"
52500,45.5436071,0.0648245,2.33448,139.35790,170.50942,0.00392,"(2002PA153)"
52500,43.8825288,0.0000000,3.58364,137.33772,172.61834,0.00000,"(2002PB153)"
52500,45.0829337,0.0547412,2.22501,298.46726,11.56124,0.00398,"(2002PC153)"
52500,46.5815468,0.0000000,0.35725,140.06306,169.83138,0.00000,"(2002PD153)"
52500,44.0386937,0.0636759,0.88368,302.40931,7.54128,0.00410,"(2002PE153)"
52500,45.6898235,0.0946498,1.48881,295.95444,14.13653,0.00388,"(2002PF153)"
52500,45.0291587,0.0831811,1.03384,280.90318,28.84772,0.00396,"(2002PG153)"
52500,46.4133489,0.0000000,2.13191,139.11582,169.85795,0.00000,"(2002PJ153)"
52500,43.8547049,0.0531531,4.24815,124.90886,184.41204,0.00075,"(2002PK153)"
52500,43.5800218,0.0000000,0.47754,351.85407,317.58513,0.00000,"(2002PL153)"
52500,43.9430809,0.1215313,18.29668,130.03028,179.09045,0.00403,"(2002PM153)"
52500,44.8884138,0.0000000,1.57547,124.68241,184.24040,0.00000,"(2002PN153)"
52500,44.0980785,0.0000000,5.82755,128.08955,181.29133,0.00000,"(2002PO153)"
52500,45.1613503,0.0000000,0.87576,327.44614,342.25493,0.00000,"(2002PP153)"
55200,43.4974693,0.0115656,5.75665,322.03576,39.33733,346.87231,"(2002PD155)"
52480,43.0498438,0.0000000,11.40866,143.23516,168.41319,359.94766,"(2002PE155)"
52500,45.7186817,0.0134562,0.93457,16.29574,309.64645,0.02820,"(2002PR170)"
52500,44.4614249,0.0767394,2.28515,116.26278,209.98311,0.02930,"(2002PS170)"
55200,46.5206709,0.1402540,3.69132,328.75944,132.27061,246.49288,"(2002PT170)"
55200,48.1131152,0.2233830,1.91035,329.06654,95.78882,295.65660,"(2002PU170)"
55200,42.9372537,0.0193250,1.27165,88.44796,268.47537,340.39665,"(2002PV170)"
55200,45.1497692,0.0691634,3.92091,339.82421,208.35347,143.06299,"(2002PW170)"
55200,42.9071242,0.0385519,1.56937,119.07332,120.43370,93.61494,"(2002PX170)"
55200,43.2850381,0.0300534,3.01396,110.76154,136.71369,86.96713,"(2002PY170)"
52500,43.9896359,0.0338365,1.27209,68.80282,259.69511,0.02967,"(2002PZ170)"
55200,44.5999055,0.0714196,2.50802,109.54086,26.61538,203.18288,"(2002PA171)"
55200,45.0011529,0.0631313,3.56474,336.72251,313.14085,43.66799,"(2002PC171)"
55200,601.4602459723685,.9955358054043858,58.22565833685347,170.4564871066548,212.2986714122711,.1708577525666528,"(2002RN109)"
52540,43.6850670,0.0000000,3.58125,55.46399,334.67272,359.93173,"(2002TZ300)"
52540,44.1737601,0.0000000,2.52793,65.92961,324.41051,359.93286,"(2002TA301)"
52540,43.2081623,0.0000000,1.72182,88.40927,301.98500,359.93060,"(2002TB301)"
52540,45.7782668,0.0000000,1.12897,125.67442,264.51212,359.93636,"(2002TC301)"
52540,43.3718365,0.0000000,1.36802,104.33491,285.82516,359.93099,"(2002TD301)"
52540,45.2371782,0.0000000,8.35506,201.00275,189.29129,359.93521,"(2002TE301)"
52540,44.7187965,0.0000000,3.27085,57.86737,332.29534,359.93408,"(2002TF301)"
52540,45.5618529,0.0000000,2.11301,73.41109,316.85373,359.93590,"(2002TG301)"
52540,39.2629017,0.1790131,1.78758,80.56644,212.34056,76.65743,"(2002TH301)"
52540,43.6709717,0.0333302,1.56987,110.01809,280.26049,359.95490,"(2002TJ301)"
52540,43.2967188,0.0453844,1.57649,118.50783,271.75467,359.95429,"(2002TL301)"
52540,39.3876449,0.3032201,6.45148,40.29717,248.81999,65.83883,"(2002TM301)"
52580,45.7427580,0.0827574,3.08410,92.58519,143.91780,179.68651,"(2002VZ94)"
52580,44.7947195,0.0935247,1.97977,172.43198,245.68306,359.96711,"(2002VA95)"
52580,39.3774529,0.1052319,12.24777,67.13664,350.72111,359.95997,"(2002VB95)"
52580,46.8575739,0.0000000,2.46047,176.75756,241.32675,0.00000,"(2002VC95)"
52580,43.3231915,0.0870948,20.45944,63.27518,354.65988,359.96540,"(2002VD95)"
55200,47.6931059,0.3214748,3.90727,37.84127,53.52546,353.09568,"(2002VD130)"
55200,44.5596228,0.0658303,3.24261,356.76027,232.78474,203.67691,"(2002VE130)"
55200,45.8344183,0.1187029,19.54320,257.50607,111.85474,53.30972,"(2002VF130)"
55200,42.4703886642692,.03465523455349626,1.162718680774235,334.3906242636012,347.0395029577566,103.8013807007655,"(2002VT130)"
55200,39.13677675432661,.2074471439971586,1.37060132746452,267.8910631623439,280.8863098196554,262.6555022090652,"(2002VU130)"
55200,42.5063971,0.1713834,2.37997,171.41706,258.64228,333.55710,"(2002VV130)"
52580,45.9655407,0.0838520,1.84606,4.35458,17.54499,359.98439,"(2002VW130)"
55200,39.6129839,0.2252743,1.32170,296.78575,105.59965,3.77609,"(2002VX130)"
52580,39.4996105,0.2134224,27.88188,233.00267,180.86852,359.97957,"(2002VY130)"
52580,45.8058922,0.0917383,8.39615,353.40189,29.70115,359.97788,"(2002VZ130)"
55200,43.2651968,0.0383085,1.52948,86.77232,145.20923,154.85589,"(2002VB131)"
